IRIDIUM 26              
1 24903U 97043A   25308.26945262  .00000507  00000+0  16365-3 0  9990
2 24903  86.3973  51.7247 0002043  88.6522 271.4909 14.37277031476860
IRIDIUM 22              
1 24907U 97043E   25308.31557899  .00000464  00000+0  15281-3 0  9993
2 24907  86.3971  55.3657 0001979  94.1961 265.9463 14.36076162476889
DUMMY MASS 1            
1 24925U 97048A   25308.31754411  .00000600  00000+0  63692-4 0  9999
2 24925  86.3336  70.4823 0007385  28.1547 332.0076 14.87126753525958
DUMMY MASS 2            
1 24926U 97048B   25308.30308506  .00000578  00000+0  61536-4 0  9998
2 24926  86.3332  72.1232 0008551  36.6026 323.5781 14.86877384525725
IRIDIUM 29              
1 24944U 97051A   25308.28799432  .00000580  00000+0  19069-3 0  9997
2 24944  86.3926  85.0883 0002063  97.4785 262.6647 14.36604088473380
IRIDIUM 33              
1 24946U 97051C   25308.28542431  .00000438  00000+0  14692-3 0  9993
2 24946  86.3843  84.3626 0007377 356.4814   3.6329 14.34992485472839
IRIDIUM 28              
1 24948U 97051E   25308.31230067  .00000519  00000+0  16688-3 0  9995
2 24948  86.3934  82.5121 0001960  76.9149 283.2268 14.37508128473973
IRIDIUM 36              
1 24967U 97056C   25308.18407796  .00000499  00000+0  15945-3 0  9993
2 24967  86.3928 114.1999 0001875  85.8163 274.3249 14.37727752472337
